SL-12 R/B(2)            
1 14394U 83100F   26074.23308681  .00000020  00000+0  00000+0 0  9993
2 14394   7.4441 303.2202 0018325 155.8689 200.3585  1.01053677156067
INTELSAT 507            
1 14421U 83105A   26074.25733132  .00000065  00000+0  00000+0 0  9993
2 14421  12.0821 331.7685 0003588  52.5598 118.2774  0.99690470136294
SL-12 R/B(2)            
1 14548U 83118F   26074.12663831 -.00000099  00000+0  00000+0 0  9999
2 14548   8.7201 311.5970 0048309 343.4401 359.3772  1.00233112136954
OPS 0441                
1 14675U 84009A   26074.03806374  .00000078  00000+0  00000+0 0  9997
2 14675   6.0613   2.2281 0881573  24.6884   7.4778  1.00322024  6801
TITAN 34D TRANSTAGE R/B 
1 14677U 84009C   26073.12361824 -.00000290  00000+0  00000+0 0  9991
2 14677   6.0746   0.2755 1041890 103.1156 268.7316  0.99452074 24929
RADUGA 14               
1 14725U 84016A   26074.15324422 -.00000073  00000+0  00000+0 0  9999
2 14725   8.7520 311.4141 0000700 117.1695 231.1954  1.00298068117159
COSMOS 1540             
1 14783U 84022A   26074.15333089 -.00000074  00000+0  00000+0 0  9990
2 14783   9.5177 305.2805 0007562 301.2809  53.6961  1.00283039120076
COSMOS 1546             
1 14867U 84031A   26074.14122613 -.00000102  00000+0  00000+0 0  9993
2 14867   8.8574 312.0621 0025247  13.6153 333.7570  1.00257434 46424
STTW-T2                 
1 14899U 84035A   26073.52391524 -.00000321  00000+0  00000+0 0  9995
2 14899   9.6181 318.4942 0005568 195.5351 341.5020  1.00264525 46428
TITAN 34D TRANSTAGE R/B 
1 14931U 84037B   26073.03969945 -.00000230  00000+0  00000+0 0  9997
2 14931   8.9636 311.6808 0032344 325.6511  34.1137  1.01160592 24974
GORIZONT 9              
1 14940U 84041A   26073.82155910 -.00000203  00000+0  00000+0 0  9998
2 14940   8.9265 312.9366 0005694 296.5224 303.8305  1.00316356120992
SL-12 R/B(2)            
1 14948U 84022F   26073.95252338 -.00000335  00000+0  00000+0 0  9997
2 14948   9.6623 305.6976 0021717 147.0378 201.3781  0.99877622160333
SL-12 R/B(2)            
1 14951U 84031F   26073.95217670 -.00000328  00000+0  00000+0 0  9993
2 14951   9.2552 313.2251 0013768 261.4025  77.0994  0.99428888118863
ZHONGXING-5             
1 14985U 84049A   26073.36755897 -.00000255  00000+0  00000+0 0  9991
2 14985  14.3903 349.0303 0009621 249.9502 355.7669  0.99985785130353
RADUGA 15               
1 15057U 84063A   26073.70406039 -.00000303  00000+0  00000+0 0  9991
2 15057   8.9117 312.4016 0001810 251.2898 323.0239  1.00181635140156
COSMOS 1581             
1 15095U 84071A   26073.75466127 -.00000984  00000+0  00000+0 0  9996
2 15095  67.2918  25.6605 6692082   3.8699 359.2271  1.99720937278583
GORIZONT 10             
1 15144U 84078A   26074.25221796  .00000118  00000+0  00000+0 0  9993
2 15144   9.0610 313.9779 0003810 342.3259 178.8684  1.00199101153634
