[{"OBJECT_NAME":"SL-12 R/B(2)","OBJECT_ID":"1983-100F","EPOCH":"2026-03-15T05:35:38.700384","MEAN_MOTION":1.01053677,"ECCENTRICITY":0.00183251,"INCLINATION":7.4441,"RA_OF_ASC_NODE":303.2202,"ARG_OF_PERICENTER":155.8689,"MEAN_ANOMALY":200.3585,"EPHEMERIS_TYPE":0,"CLASSIFICATION_TYPE":"U","NORAD_CAT_ID":14394,"ELEMENT_SET_NO":999,"REV_AT_EPOCH":15606,"BSTAR":0,"MEAN_MOTION_DOT":2.0e-7,"MEAN_MOTION_DDOT":0},{"OBJECT_NAME":"INTELSAT 507","OBJECT_ID":"1983-105A","EPOCH":"2026-03-15T06:10:33.426048","MEAN_MOTION":0.9969047,"ECCENTRICITY":0.00035888,"INCLINATION":12.0821,"RA_OF_ASC_NODE":331.7685,"ARG_OF_PERICENTER":52.5598,"MEAN_ANOMALY":118.2774,"EPHEMERIS_TYPE":0,"CLASSIFICATION_TYPE":"U","NORAD_CAT_ID":14421,"ELEMENT_SET_NO":999,"REV_AT_EPOCH":13629,"BSTAR":0,"MEAN_MOTION_DOT":6.5e-7,"MEAN_MOTION_DDOT":0},{"OBJECT_NAME":"SL-12 R/B(2)","OBJECT_ID":"1983-118F","EPOCH":"2026-03-15T03:02:21.549984","MEAN_MOTION":1.00233112,"ECCENTRICITY":0.00483099,"INCLINATION":8.7201,"RA_OF_ASC_NODE":311.597,"ARG_OF_PERICENTER":343.4401,"MEAN_ANOMALY":359.3772,"EPHEMERIS_TYPE":0,"CLASSIFICATION_TYPE":"U","NORAD_CAT_ID":14548,"ELEMENT_SET_NO":999,"REV_AT_EPOCH":13695,"BSTAR":0,"MEAN_MOTION_DOT":-9.9e-7,"MEAN_MOTION_DDOT":0},{"OBJECT_NAME":"OPS 0441","OBJECT_ID":"1984-009A","EPOCH":"2026-03-15T00:54:48.707136","MEAN_MOTION":1.00322024,"ECCENTRICITY":0.08815737,"INCLINATION":6.0613,"RA_OF_ASC_NODE":2.2281,"ARG_OF_PERICENTER":24.6884,"MEAN_ANOMALY":7.4778,"EPHEMERIS_TYPE":0,"CLASSIFICATION_TYPE":"U","NORAD_CAT_ID":14675,"ELEMENT_SET_NO":999,"REV_AT_EPOCH":680,"BSTAR":0,"MEAN_MOTION_DOT":7.8e-7,"MEAN_MOTION_DDOT":0},{"OBJECT_NAME":"TITAN 34D TRANSTAGE R/B","OBJECT_ID":"1984-009C","EPOCH":"2026-03-14T02:58:00.615936","MEAN_MOTION":0.99452074,"ECCENTRICITY":0.104189,"INCLINATION":6.0746,"RA_OF_ASC_NODE":0.2755,"ARG_OF_PERICENTER":103.1156,"MEAN_ANOMALY":268.7316,"EPHEMERIS_TYPE":0,"CLASSIFICATION_TYPE":"U","NORAD_CAT_ID":14677,"ELEMENT_SET_NO":999,"REV_AT_EPOCH":2492,"BSTAR":0,"MEAN_MOTION_DOT":-2.9e-6,"MEAN_MOTION_DDOT":0},{"OBJECT_NAME":"RADUGA 14","OBJECT_ID":"1984-016A","EPOCH":"2026-03-15T03:40:40.300608","MEAN_MOTION":1.00298068,"ECCENTRICITY":7.008e-5,"INCLINATION":8.752,"RA_OF_ASC_NODE":311.4141,"ARG_OF_PERICENTER":117.1695,"MEAN_ANOMALY":231.1954,"EPHEMERIS_TYPE":0,"CLASSIFICATION_TYPE":"U","NORAD_CAT_ID":14725,"ELEMENT_SET_NO":999,"REV_AT_EPOCH":11715,"BSTAR":0,"MEAN_MOTION_DOT":-7.3e-7,"MEAN_MOTION_DDOT":0},{"OBJECT_NAME":"COSMOS 1540","OBJECT_ID":"1984-022A","EPOCH":"2026-03-15T03:40:47.788896","MEAN_MOTION":1.00283039,"ECCENTRICITY":0.00075622,"INCLINATION":9.5177,"RA_OF_ASC_NODE":305.2805,"ARG_OF_PERICENTER":301.2809,"MEAN_ANOMALY":53.6961,"EPHEMERIS_TYPE":0,"CLASSIFICATION_TYPE":"U","NORAD_CAT_ID":14783,"ELEMENT_SET_NO":999,"REV_AT_EPOCH":12007,"BSTAR":0,"MEAN_MOTION_DOT":-7.4e-7,"MEAN_MOTION_DDOT":0},{"OBJECT_NAME":"COSMOS 1546","OBJECT_ID":"1984-031A","EPOCH":"2026-03-15T03:23:21.937632","MEAN_MOTION":1.00257434,"ECCENTRICITY":0.00252472,"INCLINATION":8.8574,"RA_OF_ASC_NODE":312.0621,"ARG_OF_PERICENTER":13.6153,"MEAN_ANOMALY":333.757,"EPHEMERIS_TYPE":0,"CLASSIFICATION_TYPE":"U","NORAD_CAT_ID":14867,"ELEMENT_SET_NO":999,"REV_AT_EPOCH":4642,"BSTAR":0,"MEAN_MOTION_DOT":-1.02e-6,"MEAN_MOTION_DDOT":0},{"OBJECT_NAME":"STTW-T2","OBJECT_ID":"1984-035A","EPOCH":"2026-03-14T12:34:26.276736","MEAN_MOTION":1.00264525,"ECCENTRICITY":0.00055688,"INCLINATION":9.6181,"RA_OF_ASC_NODE":318.4942,"ARG_OF_PERICENTER":195.5351,"MEAN_ANOMALY":341.502,"EPHEMERIS_TYPE":0,"CLASSIFICATION_TYPE":"U","NORAD_CAT_ID":14899,"ELEMENT_SET_NO":999,"REV_AT_EPOCH":4642,"BSTAR":0,"MEAN_MOTION_DOT":-3.21e-6,"MEAN_MOTION_DDOT":0},{"OBJECT_NAME":"TITAN 34D TRANSTAGE R/B","OBJECT_ID":"1984-037B","EPOCH":"2026-03-14T00:57:10.032480","MEAN_MOTION":1.01160592,"ECCENTRICITY":0.00323443,"INCLINATION":8.9636,"RA_OF_ASC_NODE":311.6808,"ARG_OF_PERICENTER":325.6511,"MEAN_ANOMALY":34.1137,"EPHEMERIS_TYPE":0,"CLASSIFICATION_TYPE":"U","NORAD_CAT_ID":14931,"ELEMENT_SET_NO":999,"REV_AT_EPOCH":2497,"BSTAR":0,"MEAN_MOTION_DOT":-2.3e-6,"MEAN_MOTION_DDOT":0},{"OBJECT_NAME":"GORIZONT 9","OBJECT_ID":"1984-041A","EPOCH":"2026-03-14T19:43:02.706240","MEAN_MOTION":1.00316356,"ECCENTRICITY":0.0005694,"INCLINATION":8.9265,"RA_OF_ASC_NODE":312.9366,"ARG_OF_PERICENTER":296.5224,"MEAN_ANOMALY":303.8305,"EPHEMERIS_TYPE":0,"CLASSIFICATION_TYPE":"U","NORAD_CAT_ID":14940,"ELEMENT_SET_NO":999,"REV_AT_EPOCH":12099,"BSTAR":0,"MEAN_MOTION_DOT":-2.03e-6,"MEAN_MOTION_DDOT":0},{"OBJECT_NAME":"SL-12 R/B(2)","OBJECT_ID":"1984-022F","EPOCH":"2026-03-14T22:51:38.020032","MEAN_MOTION":0.99877622,"ECCENTRICITY":0.00217176,"INCLINATION":9.6623,"RA_OF_ASC_NODE":305.6976,"ARG_OF_PERICENTER":147.0378,"MEAN_ANOMALY":201.3781,"EPHEMERIS_TYPE":0,"CLASSIFICATION_TYPE":"U","NORAD_CAT_ID":14948,"ELEMENT_SET_NO":999,"REV_AT_EPOCH":16033,"BSTAR":0,"MEAN_MOTION_DOT":-3.35e-6,"MEAN_MOTION_DDOT":0},{"OBJECT_NAME":"SL-12 R/B(2)","OBJECT_ID":"1984-031F","EPOCH":"2026-03-14T22:51:08.066880","MEAN_MOTION":0.99428888,"ECCENTRICITY":0.00137683,"INCLINATION":9.2552,"RA_OF_ASC_NODE":313.2251,"ARG_OF_PERICENTER":261.4025,"MEAN_ANOMALY":77.0994,"EPHEMERIS_TYPE":0,"CLASSIFICATION_TYPE":"U","NORAD_CAT_ID":14951,"ELEMENT_SET_NO":999,"REV_AT_EPOCH":11886,"BSTAR":0,"MEAN_MOTION_DOT":-3.28e-6,"MEAN_MOTION_DDOT":0},{"OBJECT_NAME":"ZHONGXING-5","OBJECT_ID":"1984-049A","EPOCH":"2026-03-14T08:49:17.095008","MEAN_MOTION":0.99985785,"ECCENTRICITY":0.00096212,"INCLINATION":14.3903,"RA_OF_ASC_NODE":349.0303,"ARG_OF_PERICENTER":249.9502,"MEAN_ANOMALY":355.7669,"EPHEMERIS_TYPE":0,"CLASSIFICATION_TYPE":"U","NORAD_CAT_ID":14985,"ELEMENT_SET_NO":999,"REV_AT_EPOCH":13035,"BSTAR":0,"MEAN_MOTION_DOT":-2.55e-6,"MEAN_MOTION_DDOT":0},{"OBJECT_NAME":"RADUGA 15","OBJECT_ID":"1984-063A","EPOCH":"2026-03-14T16:53:50.817696","MEAN_MOTION":1.00181635,"ECCENTRICITY":0.00018103,"INCLINATION":8.9117,"RA_OF_ASC_NODE":312.4016,"ARG_OF_PERICENTER":251.2898,"MEAN_ANOMALY":323.0239,"EPHEMERIS_TYPE":0,"CLASSIFICATION_TYPE":"U","NORAD_CAT_ID":15057,"ELEMENT_SET_NO":999,"REV_AT_EPOCH":14015,"BSTAR":0,"MEAN_MOTION_DOT":-3.03e-6,"MEAN_MOTION_DDOT":0},{"OBJECT_NAME":"COSMOS 1581","OBJECT_ID":"1984-071A","EPOCH":"2026-03-14T18:06:42.733728","MEAN_MOTION":1.99720937,"ECCENTRICITY":0.66920822,"INCLINATION":67.2918,"RA_OF_ASC_NODE":25.6605,"ARG_OF_PERICENTER":3.8699,"MEAN_ANOMALY":359.2271,"EPHEMERIS_TYPE":0,"CLASSIFICATION_TYPE":"U","NORAD_CAT_ID":15095,"ELEMENT_SET_NO":999,"REV_AT_EPOCH":27858,"BSTAR":0,"MEAN_MOTION_DOT":-9.84e-6,"MEAN_MOTION_DDOT":0},{"OBJECT_NAME":"GORIZONT 10","OBJECT_ID":"1984-078A","EPOCH":"2026-03-15T06:03:11.631744","MEAN_MOTION":1.00199101,"ECCENTRICITY":0.00038106,"INCLINATION":9.061,"RA_OF_ASC_NODE":313.9779,"ARG_OF_PERICENTER":342.3259,"MEAN_ANOMALY":178.8684,"EPHEMERIS_TYPE":0,"CLASSIFICATION_TYPE":"U","NORAD_CAT_ID":15144,"ELEMENT_SET_NO":999,"REV_AT_EPOCH":15363,"BSTAR":0,"MEAN_MOTION_DOT":1.18e-6,"MEAN_MOTION_DDOT":0}]
